#dP2023  9  7 18  0  0.00000000      96 __u+U ITR00 EXT  IAC
## 2278 410400.00000000   900.00000000 60194 0.7500000000000
+  119   C06C07C08C09C10C11C12C13C14C16C19C20C21C22C23C24C25
+        C26C27C28C29C30C32C33C34C35C36C37C38C39C40C41C42C43
+        C44C45C46E02E03E04E05E07E08E09E10E11E12E13E14E15E18
+        E19E21E24E25E26E27E30E31E33E34E36G01G02G03G04G05G06
+        G07G08G09G10G11G12G13G14G15G16G17G18G19G20G21G22G23
+        G24G25G26G27G28G29G30G31G32J02J03J04R01R02R03R04R05
+        R07R08R09R11R12R13R14R15R16R17R18R19R20R21R22R24R25
++         8 10 11  9  8  8  8 11  8 10  8  7 10  8  7  8  9
++         7  8  7  9  8  8  8  8  7  9  8  9 10 10  7 10  8
++         7  7  8  7  7  7  7  8  8  8  7  7  7  8  7  8  7
++         7  8  7  7  8  7  7  6  7  9  7  7  7  7  7  7  7
++         7  7  7  7  8  7  8  7  6  7  6  7  7  6  7  7  6
++         7  7  7  7  7  7  8  7  7  9  9  9  7  7  8  9  8
++         9  7  7  8  8  8  8  7  9  8  9  8 10  9 10  8  9
%c M  cc GPS ccc cccc cccc cccc cccc ccccc ccccc ccccc ccccc
%c cc cc ccc ccc cccc cccc cccc cccc ccccc ccccc ccccc ccccc
%f  0.0000000  0.000000000  0.00000000000  0.000000000000000
%f  0.0000000  0.000000000  0.00000000000  0.000000000000000
%i    0    0    0    0      0      0      0      0         0
%i    0    0    0    0      0      0      0      0         0
/* IAC                                ULTRA-RAPID PREDICTION
/* S/V CLOCKS ARE ALIGNED TO GNSS TIME                      
/* G:C1WC2W R:C1PC2P E:C1XC5X C:C2IC6I J:C1CC2S             
/* PCV:IGS20_2274 OL/AL:FES2004  NONE     YN ORB:CoN CLK:CoN
*  2023 09 08 11 45  0.00000000
PC06  -9281.681922  23260.753048  33924.219513     28.489245
PC07 -16036.466789  38479.508630  -6934.739152    -55.326582
PC08      3.600921  34148.345390 -24601.329875    354.853062
PC09   -145.193807  24967.909600  34442.830635    192.037637
PC10 -10221.573488  39019.747387 -12873.221457   -171.568104
PC11 -27714.951383   3130.174642  -1267.176612    821.367695
PC12 -21401.396068  -8506.266382  15813.371196    940.856587
PC13   4878.390935  37173.200341 -18858.769007    348.316727
PC14 -18114.749889   8699.300092 -19381.297678    369.235446
PC16 -13909.906281  21605.173390  33622.167300    -70.846546
PC19  17178.727892 -17797.424936  12912.544497   -970.511245
PC20  16575.740261     18.638487  22446.212480    299.739622
PC21  -5862.377272 -19364.807845 -19204.953680   -965.344104
PC22   7922.254180 -26339.845023  -4647.823151   -316.403296
PC23   -631.587994  21147.571862  18204.481094   -878.335361
PC24 -21205.248611 -12178.621311  13462.463466    370.405063
PC25 -14697.376632   7500.275662  22499.887312    206.800184
PC26 -15716.016553 -22952.374821  -2462.390948   -174.742947
PC27  13879.527042  12888.817014 -20513.223879    196.208969
PC28  -5520.722903  16095.659540 -22114.412525    147.108553
PC29  23872.894003 -10517.146599   9898.353661    171.759580
PC30  26581.341814   1963.974155  -8296.478214     -4.616569
PC32   5931.457447  19438.460229  19133.994873   -529.160055
PC33 -17107.956322  17837.516993 -12978.367330   -959.831579
PC34 -26993.327345  -1028.613008   6967.475125    254.942736
PC35   5095.104164 -16364.814100  22017.708123    550.878536
PC36  15353.619852  -6373.990824 -22385.280166   -236.211528
PC37  14626.737835  23522.537542   3296.647357   -823.002283
PC38  -6704.173168  29685.579373 -29078.583220    103.437745
PC39 -19471.452571  20372.451712  31329.240035     -4.690194
PC40 -23290.555681  34948.289577  -5091.195179    -35.760830
PC41  -8280.435618  26363.346256   3970.304530   -880.221738
PC42 -16140.315015  -1588.629425 -22678.025386   -553.317916
PC43 -24376.475190  10068.287504  -9108.174744     38.834644
PC44 -14164.538913 -12556.183920  20485.200643    225.064001
PC45     73.159328 -21385.593783 -17935.063800    -23.231886
PC46  21091.766328  11052.844326 -14515.645952    -82.691506
PE02 -16520.662582   3503.996198  24312.259010     61.123071
PE03 -26254.614077   9773.050170  -9586.093725    -53.883624
PE04  19268.073413 -20648.936883  -8857.646309   -207.465262
PE05 -17968.067393  -6839.229171 -22509.258577     16.458841
PE07  -1236.948333  19616.734193  22135.303605    -73.308780
PE08 -19603.923068  20504.249492   8469.842595   -142.993182
PE09   1420.451131 -19557.104201 -22172.285166   -149.082904
PE10    966.462616 -16842.765051  24314.786609   -562.190364
PE11 -10421.320069 -19282.526519  19879.802492   2889.506993
PE12  11245.601496 -12177.694443  24518.401032   -689.543991
PE13   9721.958603  19158.794222 -20359.202539    -19.591258
PE14 -14642.081224  -9802.172691  18805.596912    334.442796
PE15 -11615.941339  11876.174077 -24496.618258    -51.580845
PE18   6598.221182  18875.507182 -23429.350550    506.997443
PE19  26019.427331  -7712.514049  11822.093775  -1675.465022
PE21  14439.201697  17360.996905 -19133.024744   -551.408200
PE24  -3381.088570 -29347.580183   2011.476971   -310.214539
PE25 -14321.963150 -17698.178365  18928.555021     -1.503120
PE26  25349.835029  14828.112793  -3647.375384    216.423559
PE27   3866.387015  29228.221913  -2587.248645   -144.794643
PE30  -9209.953148  23417.106219  15577.581168   -483.357903
PE31   8845.575553 -23757.202921 -15269.504337     -4.591463
PE33  26071.576698   2720.574681  13733.100070     -0.727799
PE34 -25862.493450  -2198.224222 -14253.692545    -65.926707
PE36 -25066.610862 -15128.162776   4367.104373   -113.066688
PG01  21555.904791  15114.788084  -5036.564937    166.023071
PG02  18198.517964  15616.676798 -11096.615586   -556.375084
PG03  12215.195266  16424.136431  16839.675177   -146.323727
PG04  16820.495335   5846.313381  19752.142968    149.859464
PG05  -5642.757048 -25566.632394  -4320.973585   -141.918426
PG06  11382.844519 -10223.059416  21786.904603    553.847586
PG07  24321.240297   4420.994022  -9859.195789     73.049460
PG08   7530.018295  13398.077927 -21720.045837   -141.202191
PG09  22105.946290  -2910.742063  14383.832261    -65.334106
PG10 -11221.267947  15561.927351 -18041.616659    -52.550389
PG11  -2660.407011 -17367.121721  19945.922933   -358.736704
PG12  -9545.440546 -20208.979262  14136.109139   -422.364232
PG13   2556.233770 -16776.782602 -20569.243851    570.019525
PG14  13553.469068 -12085.753898 -19303.784231    178.667028
PG15 -10088.040760 -12478.138161 -21644.171107     75.514551
PG16   -622.761928  26303.411933   -288.112765   -457.153152
PG17  22690.364855 -13897.017994   1223.739008    723.594342
PG18 -23285.745286  -2541.448482 -12686.046458   -410.346997
PG19  18932.328062 -16205.847549   8475.993927    368.673145
PG20   -303.131133 -25547.671168   7641.311521    412.965066
PG21  16746.120127  16329.425350 -12866.947556    149.310649
PG22  10715.391881 -19354.710470 -14433.808614    125.869783
PG23 -14772.614467   2040.078450 -21969.653904     65.570341
PG24 -19690.720908 -15525.609172  -9747.258185   -313.546387
PG25 -15135.983504  -6568.658497  20550.567414    466.647073
PG26  -5170.587397  23399.091220  10946.736559    229.485892
PG27  -5380.466855  18642.099709 -18201.220525    -35.997635
PG28 -13175.897785   9901.634834  20807.025128     -7.041690
PG29 -22375.013376   1277.884884  14290.109548   -609.044651
PG30  19549.917480  -4422.544776 -17432.091513   -489.620785
PG31  -3383.590976  15245.869259  21250.227448   -223.076869
PG32 -19862.997093  16955.007723   4370.828444   -554.518586
PJ02 -28586.881836  25211.250095  23114.411157     -3.695454
PJ03 -30994.018850  15836.472434 -19201.839095     -2.355427
PJ04 -22103.334447  34239.304579  -5719.379425     70.559039
PR01 -15907.085420   9584.953242 -17496.137360     65.201396
PR02 -14792.546674  20697.694465  -1224.170509    -22.436048
PR03  -4640.268120  19900.546793  15266.153990     84.837514
PR04   7456.016996   8076.662255  23039.680308    201.976956
PR05  15806.551650  -8009.027014  18366.020328    118.685048
PR07   4181.726730 -19602.581101 -15777.313891     64.205166
PR08  -7674.005299  -7954.073986 -22938.523386    -72.473987
PR09   4079.633366 -14236.470513 -20724.294397    141.124383
PR11 -14275.235066 -19562.051144   7999.526307   -156.564313
PR12 -13268.919819  -3389.664575  21552.736762     31.059647
PR13  -5328.049311  12374.479423  21651.311786    -38.982618
PR14   7288.955183  23051.065309   8186.578078     25.232947
PR15  14414.652994  18924.771545  -9191.395238     86.372453
PR16  13264.217336   3712.745894 -21462.944420     18.494075
PR17   3856.138160  10692.987011 -22821.617671     15.606748
PR18  19699.309883   7979.517816 -14119.574666    100.891530
PR19  25358.735302   2667.085107    328.108030   -246.464614
PR20  15944.229085  -6605.422537  18803.537912    -99.642012
PR21  -4981.537027 -10638.586740  22646.584479    -36.468712
PR22 -20046.692081  -8564.827054  13267.276681     83.153123
PR24 -15185.164381   7777.024196 -18956.901664    -23.560499
PR25  -3382.935179 -11166.924347  22690.674882     38.765642
EOF
